[{"OBJECT_NAME":"SES-6","OBJECT_ID":"2013-026A","EPOCH":"2026-03-04T01:30:38.672640","MEAN_MOTION":1.00272191,"ECCENTRICITY":0.0001853,"INCLINATION":0.0668,"RA_OF_ASC_NODE":288.4881,"ARG_OF_PERICENTER":59.381,"MEAN_ANOMALY":156.0856,"EPHEMERIS_TYPE":0,"CLASSIFICATION_TYPE":"U","NORAD_CAT_ID":39172,"ELEMENT_SET_NO":999,"REV_AT_EPOCH":4667,"BSTAR":0,"MEAN_MOTION_DOT":-2.74e-6,"MEAN_MOTION_DDOT":0},{"OBJECT_NAME":"IRNSS-1A","OBJECT_ID":"2013-034A","EPOCH":"2026-03-03T14:19:51.811680","MEAN_MOTION":1.00269823,"ECCENTRICITY":0.0017825,"INCLINATION":35.4874,"RA_OF_ASC_NODE":65.3779,"ARG_OF_PERICENTER":190.7092,"MEAN_ANOMALY":175.2371,"EPHEMERIS_TYPE":0,"CLASSIFICATION_TYPE":"U","NORAD_CAT_ID":39199,"ELEMENT_SET_NO":999,"REV_AT_EPOCH":4631,"BSTAR":0,"MEAN_MOTION_DOT":8.1e-7,"MEAN_MOTION_DDOT":0},{"OBJECT_NAME":"MUOS-2","OBJECT_ID":"2013-036A","EPOCH":"2026-03-04T02:52:36.552864","MEAN_MOTION":1.00273466,"ECCENTRICITY":0.0053138,"INCLINATION":4.7853,"RA_OF_ASC_NODE":45.3224,"ARG_OF_PERICENTER":184.1359,"MEAN_ANOMALY":147.5681,"EPHEMERIS_TYPE":0,"CLASSIFICATION_TYPE":"U","NORAD_CAT_ID":39206,"ELEMENT_SET_NO":999,"REV_AT_EPOCH":4613,"BSTAR":0,"MEAN_MOTION_DOT":-2.2e-7,"MEAN_MOTION_DDOT":0},{"OBJECT_NAME":"ALPHASAT","OBJECT_ID":"2013-038A","EPOCH":"2026-03-04T01:39:38.681280","MEAN_MOTION":1.00270831,"ECCENTRICITY":0.0001959,"INCLINATION":2.9812,"RA_OF_ASC_NODE":2.1265,"ARG_OF_PERICENTER":354.9489,"MEAN_ANOMALY":214.5395,"EPHEMERIS_TYPE":0,"CLASSIFICATION_TYPE":"U","NORAD_CAT_ID":39215,"ELEMENT_SET_NO":999,"REV_AT_EPOCH":4296,"BSTAR":0,"MEAN_MOTION_DOT":1.23e-6,"MEAN_MOTION_DDOT":0},{"OBJECT_NAME":"INSAT-3D","OBJECT_ID":"2013-038B","EPOCH":"2026-03-03T23:14:58.848288","MEAN_MOTION":1.00273595,"ECCENTRICITY":0.0001772,"INCLINATION":1.6544,"RA_OF_ASC_NODE":83.9201,"ARG_OF_PERICENTER":240.8778,"MEAN_ANOMALY":315.1496,"EPHEMERIS_TYPE":0,"CLASSIFICATION_TYPE":"U","NORAD_CAT_ID":39216,"ELEMENT_SET_NO":999,"REV_AT_EPOCH":4602,"BSTAR":0,"MEAN_MOTION_DOT":-3.51e-6,"MEAN_MOTION_DDOT":0},{"OBJECT_NAME":"WGS F6 (USA 244)","OBJECT_ID":"2013-041A","EPOCH":"2026-03-04T00:45:38.638944","MEAN_MOTION":1.00270198,"ECCENTRICITY":0.0001398,"INCLINATION":0.0171,"RA_OF_ASC_NODE":132.4129,"ARG_OF_PERICENTER":189.4437,"MEAN_ANOMALY":76.1219,"EPHEMERIS_TYPE":0,"CLASSIFICATION_TYPE":"U","NORAD_CAT_ID":39222,"ELEMENT_SET_NO":999,"REV_AT_EPOCH":4500,"BSTAR":0,"MEAN_MOTION_DOT":7.6e-7,"MEAN_MOTION_DDOT":0},{"OBJECT_NAME":"ES'HAIL 1","OBJECT_ID":"2013-044A","EPOCH":"2026-03-04T01:39:38.681280","MEAN_MOTION":1.00270895,"ECCENTRICITY":0.0003077,"INCLINATION":0.0553,"RA_OF_ASC_NODE":349.6991,"ARG_OF_PERICENTER":355.4017,"MEAN_ANOMALY":227.1139,"EPHEMERIS_TYPE":0,"CLASSIFICATION_TYPE":"U","NORAD_CAT_ID":39233,"ELEMENT_SET_NO":999,"REV_AT_EPOCH":4557,"BSTAR":0,"MEAN_MOTION_DOT":1.3e-6,"MEAN_MOTION_DDOT":0},{"OBJECT_NAME":"GSAT-7","OBJECT_ID":"2013-044B","EPOCH":"2026-03-04T02:24:31.745952","MEAN_MOTION":1.00271441,"ECCENTRICITY":0.0006608,"INCLINATION":0.0207,"RA_OF_ASC_NODE":109.2472,"ARG_OF_PERICENTER":183.9207,"MEAN_ANOMALY":338.8037,"EPHEMERIS_TYPE":0,"CLASSIFICATION_TYPE":"U","NORAD_CAT_ID":39234,"ELEMENT_SET_NO":999,"REV_AT_EPOCH":4420,"BSTAR":0,"MEAN_MOTION_DOT":-8.9e-7,"MEAN_MOTION_DDOT":0},{"OBJECT_NAME":"AMOS-4","OBJECT_ID":"2013-045A","EPOCH":"2026-03-04T02:21:54.497952","MEAN_MOTION":1.00272159,"ECCENTRICITY":0.000331,"INCLINATION":0.0119,"RA_OF_ASC_NODE":158.9724,"ARG_OF_PERICENTER":189.9836,"MEAN_ANOMALY":273.3653,"EPHEMERIS_TYPE":0,"CLASSIFICATION_TYPE":"U","NORAD_CAT_ID":39237,"ELEMENT_SET_NO":999,"REV_AT_EPOCH":4590,"BSTAR":0,"MEAN_MOTION_DOT":-5.0e-8,"MEAN_MOTION_DDOT":0},{"OBJECT_NAME":"AEHF-3 (USA 246)","OBJECT_ID":"2013-050A","EPOCH":"2026-03-04T03:10:34.830912","MEAN_MOTION":1.00272712,"ECCENTRICITY":0.0091732,"INCLINATION":5.0348,"RA_OF_ASC_NODE":68.1529,"ARG_OF_PERICENTER":187.9099,"MEAN_ANOMALY":189.2028,"EPHEMERIS_TYPE":0,"CLASSIFICATION_TYPE":"U","NORAD_CAT_ID":39256,"ELEMENT_SET_NO":999,"REV_AT_EPOCH":4460,"BSTAR":0,"MEAN_MOTION_DOT":1.9e-7,"MEAN_MOTION_DDOT":0},{"OBJECT_NAME":"ASTRA 2E","OBJECT_ID":"2013-056A","EPOCH":"2026-03-04T01:39:38.681280","MEAN_MOTION":1.00271905,"ECCENTRICITY":0.0002192,"INCLINATION":0.0692,"RA_OF_ASC_NODE":29.9587,"ARG_OF_PERICENTER":306.6148,"MEAN_ANOMALY":238.6253,"EPHEMERIS_TYPE":0,"CLASSIFICATION_TYPE":"U","NORAD_CAT_ID":39285,"ELEMENT_SET_NO":999,"REV_AT_EPOCH":4536,"BSTAR":0,"MEAN_MOTION_DOT":1.37e-6,"MEAN_MOTION_DDOT":0},{"OBJECT_NAME":"FM-6","OBJECT_ID":"2013-058A","EPOCH":"2026-03-04T03:12:57.103200","MEAN_MOTION":1.00268989,"ECCENTRICITY":0.0002894,"INCLINATION":0.0222,"RA_OF_ASC_NODE":128.9923,"ARG_OF_PERICENTER":53.3091,"MEAN_ANOMALY":271.6263,"EPHEMERIS_TYPE":0,"CLASSIFICATION_TYPE":"U","NORAD_CAT_ID":39360,"ELEMENT_SET_NO":999,"REV_AT_EPOCH":4501,"BSTAR":0,"MEAN_MOTION_DOT":-2.9e-7,"MEAN_MOTION_DDOT":0},{"OBJECT_NAME":"RADUGA-1M 3","OBJECT_ID":"2013-062A","EPOCH":"2026-03-04T02:13:25.310784","MEAN_MOTION":1.00273194,"ECCENTRICITY":2.39e-5,"INCLINATION":5.6952,"RA_OF_ASC_NODE":73.6833,"ARG_OF_PERICENTER":275.114,"MEAN_ANOMALY":241.3863,"EPHEMERIS_TYPE":0,"CLASSIFICATION_TYPE":"U","NORAD_CAT_ID":39375,"ELEMENT_SET_NO":999,"REV_AT_EPOCH":4505,"BSTAR":0,"MEAN_MOTION_DOT":1.43e-6,"MEAN_MOTION_DDOT":0},{"OBJECT_NAME":"SES-8","OBJECT_ID":"2013-071A","EPOCH":"2026-03-04T03:59:38.679360","MEAN_MOTION":1.00273058,"ECCENTRICITY":0.000164,"INCLINATION":0.0587,"RA_OF_ASC_NODE":272.5817,"ARG_OF_PERICENTER":92.1261,"MEAN_ANOMALY":312.1062,"EPHEMERIS_TYPE":0,"CLASSIFICATION_TYPE":"U","NORAD_CAT_ID":39460,"ELEMENT_SET_NO":999,"REV_AT_EPOCH":4338,"BSTAR":0,"MEAN_MOTION_DOT":-2.82e-6,"MEAN_MOTION_DDOT":0},{"OBJECT_NAME":"INMARSAT 5-F1","OBJECT_ID":"2013-073A","EPOCH":"2026-03-04T02:21:09.569088","MEAN_MOTION":1.00269426,"ECCENTRICITY":2.2e-5,"INCLINATION":0.0211,"RA_OF_ASC_NODE":127.6809,"ARG_OF_PERICENTER":218.2789,"MEAN_ANOMALY":273.7264,"EPHEMERIS_TYPE":0,"CLASSIFICATION_TYPE":"U","NORAD_CAT_ID":39476,"ELEMENT_SET_NO":999,"REV_AT_EPOCH":4452,"BSTAR":0,"MEAN_MOTION_DOT":1.6e-7,"MEAN_MOTION_DDOT":0},{"OBJECT_NAME":"TKSAT-1 (TUPAC KATARI)","OBJECT_ID":"2013-075A","EPOCH":"2026-03-04T04:10:38.597376","MEAN_MOTION":1.00272973,"ECCENTRICITY":0.0003058,"INCLINATION":0.0541,"RA_OF_ASC_NODE":304.3554,"ARG_OF_PERICENTER":33.2464,"MEAN_ANOMALY":159.7772,"EPHEMERIS_TYPE":0,"CLASSIFICATION_TYPE":"U","NORAD_CAT_ID":39481,"ELEMENT_SET_NO":999,"REV_AT_EPOCH":4455,"BSTAR":0,"MEAN_MOTION_DOT":-2.07e-6,"MEAN_MOTION_DDOT":0},{"OBJECT_NAME":"EXPRESS-AM5","OBJECT_ID":"2013-077A","EPOCH":"2026-03-04T05:14:38.788800","MEAN_MOTION":1.00270009,"ECCENTRICITY":0.0002233,"INCLINATION":0.0219,"RA_OF_ASC_NODE":167.2028,"ARG_OF_PERICENTER":167.4577,"MEAN_ANOMALY":46.0164,"EPHEMERIS_TYPE":0,"CLASSIFICATION_TYPE":"U","NORAD_CAT_ID":39487,"ELEMENT_SET_NO":999,"REV_AT_EPOCH":4530,"BSTAR":0,"MEAN_MOTION_DOT":0,"MEAN_MOTION_DDOT":0}]
